HORYU-4                 
1 41340U 16012D   20363.87076354  .00000727  00000-0  47859-4 0  9999
2 41340  31.0037 173.5297 0014047 279.0541  80.8505 15.01693825267120
E-ST@R-II               
1 41459U 16025D   20364.17627348  .00001966  00000-0  10150-3 0  9992
2 41459  98.1210 124.6103 0161364 276.3555  81.9305 15.07162368256768
AAUSAT 4                
1 41460U 16025E   20363.99870226  .00004395  00000-0  21283-3 0  9996
2 41460  98.1201 127.5008 0149521 263.1076  95.3107 15.09809948256986
BEESAT-4                
1 41619U 16040W   20363.73947239  .00002817  00000-0  11657-3 0  9991
2 41619  97.2959  58.4639 0010107 206.6639 153.4081 15.24721171238994
CANX-7                  
1 41788U 16059F   20364.17086484  .00015187  00000-0  19126-2 0  9995
2 41788  98.2566  97.4244 0023392  44.0294 316.2816 14.81917117228614
RAVAN                   
1 41849U 16067B   20363.77035165  .00000293  00000-0  29485-4 0  9990
2 41849  97.9481 117.1426 0008259 320.5162  39.5457 14.98799634225722
CELTEE 1                
1 41850U 16067C   20363.81563455  .00000176  00000-0  20432-4 0  9998
2 41850  97.9418 114.3112 0007962 330.8794  29.1982 14.97322756225588
OPTICUBE 04             
1 41851U 16067D   20363.78174234  .00000397  00000-0  39812-4 0  9995
2 41851  97.9390 113.7826 0007953 330.4686  29.6085 14.97012590225557
AEROCUBE 8D             
1 41852U 16067E   20363.79671868  .00001087  00000-0  99620-4 0  9992
2 41852  97.9402 113.6480 0008529 332.2292  27.8472 14.97062358225535
AEROCUBE 8C             
1 41853U 16067F   20363.76596191  .00000156  00000-0  18834-4 0  9999
2 41853  97.9392 113.5027 0009354 330.9559  29.1141 14.97024820225527
PROMETHEUS 2-1          
1 41854U 16067G   20363.82353090  .00000208  00000-0  23179-4 0  9992
2 41854  97.9410 114.0237 0009636 330.3371  29.7303 14.97430597225558
PROMETHEUS 2-3          
1 41855U 16067H   20363.82267018  .00000207  00000-0  23090-4 0  9998
2 41855  97.9413 114.0654 0009830 330.7659  29.3011 14.97443261225558
INS-1B                  
1 41954U 17008G   20363.76150973  .00002586  00000-0  10499-3 0  9998
2 41954  97.3322  64.4846 0008231 345.8925  14.2082 15.25451230214982
BGUSAT                  
1 41999U 17008BD  20364.17248414  .00004523  00000-0  16485-3 0  9995
2 41999  97.3467  70.2115 0007059 352.1397   7.9731 15.28666646214685
DIDO-2                  
1 42000U 17008BE  20364.16775923  .00001669  00000-0  69849-4 0  9999
2 42000  97.3325  65.2930 0008311   5.3416 354.7909 15.24911452214439
PEASSS                  
1 42015U 17008BV  20364.12330984  .00002275  00000-0  90623-4 0  9993
2 42015  97.3358  67.2720 0006257  10.7469 349.3902 15.26224878215036
AL-FARABI 1             
1 42016U 17008BW  20363.76656234  .00003003  00000-0  11520-3 0  9990
2 42016  97.3400  68.3171 0006029  11.1029 349.0342 15.27240662215171
NAYIF-1 (EO-88)         
1 42017U 17008BX  20364.13293636  .00002961  00000-0  11348-3 0  9996
2 42017  97.3393  68.6865 0006051   8.9842 351.1504 15.27289355215253
UCLSAT                  
1 42765U 17036A   20363.80022525  .00002430  00000-0  10254-3 0  9993
2 42765  97.2760  52.5887 0012588  65.0986 295.1558 15.24155338196176
LITUANICASAT-2          
1 42768U 17036D   20364.14643165  .00004123  00000-0  16697-3 0  9991
2 42768  97.2826  53.2601 0015419  53.3702 306.8952 15.25113927195509
AALTO-1                 
1 42775U 17036L   20363.73015558  .00001406  00000-0  63928-4 0  9993
2 42775  97.2731  49.7604 0015149  60.0919 300.1821 15.22236558195224
URSA MAIOR              
1 42776U 17036M   20364.08851516  .00001594  00000-0  71650-4 0  9994
2 42776  97.2742  50.4812 0014893  58.6401 301.6291 15.22462919195297
COMPASS 2               
1 42777U 17036N   20363.80396547  .00003114  00000-0  12828-3 0  9993
2 42777  97.2812  53.2469 0013254  56.4879 303.7623 15.24757256195408
DIAMOND RED             
1 42783U 17036U   20363.62551211  .00001892  00000-0  82387-4 0  9990
2 42783  97.2759  51.4749 0013356  67.8457 292.4197 15.23340144195309
PEGASUS                 
1 42784U 17036V   20363.80147555  .00002153  00000-0  92139-4 0  9990
2 42784  97.2766  52.1976 0013180  66.0965 294.1652 15.23793024195368
DIAMOND GREEN           
1 42785U 17036W   20363.62456062  .00001883  00000-0  82003-4 0  9995
2 42785  97.2761  51.5152 0013274  68.3977 291.8673 15.23338663195377
DIAMOND BLUE            
1 42786U 17036X   20363.68920866  .00001867  00000-0  81352-4 0  9998
2 42786  97.2761  51.5722 0013118  68.4708 291.7927 15.23339330195385
NUDTSAT                 
1 42787U 17036Y   20363.93948000  .00002897  00000-0  11730-3 0  9993
2 42787  97.2813  54.2178 0012741  57.7002 302.5478 15.25395162195332
SUCHAI                  
1 42788U 17036Z   20363.68454332  .00002613  00000-0  10906-3 0  9996
2 42788  97.2777  52.8668 0012652  64.5939 295.6607 15.24452889195465
SKCUBE                  
1 42789U 17036AA  20363.68747266  .00002416  00000-0  10169-3 0  9990
2 42789  97.2770  52.6562 0012579  65.0886 295.1657 15.24245966195371
VZLUSAT-1               
1 42790U 17036AB  20363.79981092  .00003291  00000-0  13299-3 0  9990
2 42790  97.2799  54.0713 0011906  62.0761 298.1682 15.25371418195464
ROBUSTA-1B              
1 42792U 17036AD  20363.81277619  .00002500  00000-0  10448-3 0  9993
2 42792  97.2773  53.0937 0012139  64.9911 295.2586 15.24456948195420
CICERO 6                
1 42793U 17036AE  20363.69659269  .00001615  00000-0  70263-4 0  9993
2 42793  97.2743  52.1091 0011618  68.3870 291.8604 15.23589393195436
D-SAT                   
1 42794U 17036AF  20363.81942207  .00000592  00000-0  55891-4 0  9998
2 42794  97.4754  26.6575 0127403  76.2720 285.2644 14.91408948191624
CORVUS BC2              
1 42846U 17042X   20363.71165725  .00000140  00000-0  18936-4 0  9992
2 42846  97.4959 238.1942 0009520 359.0372   1.0828 14.92201997188373
CORVUS BC1              
1 42847U 17042Y   20363.69411729  .00000259  00000-0  30554-4 0  9999
2 42847  97.4962 238.3831 0009138 358.3520   1.7668 14.92304398188377
MIRATA                  
1 43015U 17073C   20364.00222730  .00001250  00000-0  10018-3 0  9993
2 43015  97.7137 268.7830 0252497 133.4474 228.8051 14.80162473167992
MAKERSAT 0              
1 43016U 17073D   20363.68992492  .00000903  00000-0  74068-4 0  9996
2 43016  97.7171 268.6106 0255792 136.0492 226.1380 14.79583668167926
DELLINGR (RBLE)         
1 43021U 98067NJ  20364.00894244  .00047834  00000-0  25038-3 0  9993
2 43021  51.6324   0.4504 0003543  63.0832 297.0531 15.80313275177516
AEROCUBE 7B (OCSD B)    
1 43042U 17071F   20363.93938136  .00008424  00000-0  17965-3 0  9994
2 43042  51.6348 191.0517 0003930  50.2093 309.9240 15.45766904172431
AEROCUBE 7C (OCSD C)    
1 43043U 17071G   20363.81751224  .00007558  00000-0  16254-3 0  9990
2 43043  51.6346 191.7526 0004230  52.9239 307.2134 15.45688935172386
CHEFSAT                 
1 43044U 17071H   20363.86265703  .00019445  00000-0  31284-3 0  9996
2 43044  51.6344 168.4113 0002729  65.4290 294.6984 15.52986934172701
ASGARDIA 1              
1 43049U 17071N   20364.00516191  .00007765  00000-0  16704-3 0  9990
2 43049  51.6358 190.1040 0002359  78.5343 281.5909 15.45637408172416
ISARA                   
1 43050U 17071P   20363.80898783  .00018288  00000-0  31256-3 0  9990
2 43050  51.6323 173.1294 0001625  95.6416 264.4759 15.51339186172634
PROPCUBE 2 (FAUNA)      
1 43052U 17071R   20363.99047674  .00008466  00000-0  17745-3 0  9991
2 43052  51.6349 187.7679 0002223  77.8876 282.2360 15.46273754172446
CORVUS BC3              
1 43118U 18004H   20363.77162912  .00001554  00000-0  67424-4 0  9991
2 43118  97.4247  72.2685 0011851  90.4018 269.8577 15.23788015164588
MICROMAS-2A             
1 43131U 18004W   20363.78765916  .00003739  00000-0  14699-3 0  9992
2 43131  97.4313  74.7849 0010389  87.4149 272.8279 15.26249879164724
SPACEBEE-4              
1 43139U 18004AE  20364.16035895  .00005713  00000-0  21181-3 0  9997
2 43139  97.4363  76.8731 0009598  86.6224 273.6113 15.27976047164861
SPACEBEE-3              
1 43140U 18004AF  20364.16955631  .00007362  00000-0  26186-3 0  9990
2 43140  97.4385  77.9248 0009092  84.5727 275.6550 15.29241111164930
SPACEBEE-2              
1 43141U 18004AG  20364.16972341  .00007934  00000-0  27829-3 0  9998
2 43141  97.4400  78.3252 0009007  83.6922 276.5344 15.29674500164957
SPACEBEE-1              
1 43142U 18004AH  20363.75794017  .00008850  00000-0  30528-3 0  9993
2 43142  97.4408  78.3097 0008931  84.6843 275.5417 15.30183164164909
CICERO 7                
1 43143U 18004AJ  20363.78761914  .00003500  00000-0  13800-3 0  9998
2 43143  97.4289  74.9121 0008724  95.4580 264.7654 15.26213753164743
GOMX-4B                 
1 43196U 18015E   20363.77941750  .00000938  00000-0  40763-4 0  9996
2 43196  97.4621 131.1980 0019554 137.0129 223.2640 15.24656668161505
GOMX-4A                 
1 43197U 18015F   20364.16719061  .00001837  00000-0  76279-4 0  9999
2 43197  97.4607 131.7404 0020027 137.2588 306.0376 15.24949677161584
UBAKUSAT                
1 43467U 98067NQ  20362.27906033  .06269310  12352-4  52456-3 0  9996
2 43467  51.6190 354.3668 0001241 137.3285 222.7838 16.38845679150702
TEMPEST-D               
1 43547U 98067NV  20363.50056068  .00015212  00000-0  12782-3 0  9991
2 43547  51.6377  49.0129 0006047  58.7040 301.4549 15.70108263139901
RAINCUBE                
1 43548U 98067NW  20358.54873977  .07367411  12353-4  71823-3 0  9993
2 43548  51.6133  23.4318 0001982  43.8993 316.2190 16.37524600140249
HALOSAT                 
1 43549U 98067NX  20363.98097262  .00880926  46994-3  77219-3 0  9999
2 43549  51.6286 359.2148 0006468  90.8297 269.3459 16.12473951140615
EQUISAT                 
1 43552U 98067PA  20361.21801847  .10316869  12478-4  50011-3 0  9992
2 43552  51.6122   8.3673 0000676 209.2273 150.8717 16.43170683140619
